[{"OBJECT_NAME":"GEESAT-4 06","OBJECT_ID":"2025-170F","EPOCH":"2026-03-09T22:38:42.354528","MEAN_MOTION":14.83615146,"ECCENTRICITY":0.00188872,"INCLINATION":49.9829,"RA_OF_ASC_NODE":274.2895,"ARG_OF_PERICENTER":19.9102,"MEAN_ANOMALY":340.2569,"EPHEMERIS_TYPE":0,"CLASSIFICATION_TYPE":"U","NORAD_CAT_ID":65124,"ELEMENT_SET_NO":999,"REV_AT_EPOCH":3169,"BSTAR":0.00034907965,"MEAN_MOTION_DOT":2.689e-5,"MEAN_MOTION_DDOT":0},{"OBJECT_NAME":"AETHER-6","OBJECT_ID":"2026-004Q","EPOCH":"2026-03-09T23:24:31.786560","MEAN_MOTION":14.88053153,"ECCENTRICITY":0.00065468,"INCLINATION":97.8038,"RA_OF_ASC_NODE":69.2098,"ARG_OF_PERICENTER":92.1481,"MEAN_ANOMALY":268.0486,"EPHEMERIS_TYPE":0,"CLASSIFICATION_TYPE":"U","NORAD_CAT_ID":67377,"ELEMENT_SET_NO":999,"REV_AT_EPOCH":853,"BSTAR":0.00028428707,"MEAN_MOTION_DOT":2.559e-5,"MEAN_MOTION_DDOT":0}]
